{"fetched_at":"2026-03-29T16:36:15Z","count":15609,"tles":[{"name":"STARLINK-1931","line1":"1 46790U 20074BD  26087.57249343  .00120436  00000+0  10197-2 0  9994","line2":"2 46790  53.0432 190.2647 0005046  24.0774 336.0477 15.68844425300171","category":"Starlink"}]}